OBJECT_NAME,OBJECT_ID,EPOCH,MEAN_MOTION,ECCENTRICITY,INCLINATION,RA_OF_ASC_NODE,ARG_OF_PERICENTER,MEAN_ANOMALY,EPHEMERIS_TYPE,CLASSIFICATION_TYPE,NORAD_CAT_ID,ELEMENT_SET_NO,REV_AT_EPOCH,BSTAR,MEAN_MOTION_DOT,MEAN_MOTION_DDOT
STARLINK-3357,2022-005AY,2026-07-06T14:00:03.000384,15.19885754,.00010019,53.1604,124.3289,76.7399,277.2349,0,U,51150,999,575,.17979004E-2,.38966E-3,0
STARLINK-3364,2022-005BA,2026-07-06T14:00:03.000384,15.26406315,.00012312,53.1627,134.0679,92.1430,181.3908,0,U,51152,999,579,.27627161E-1,.787089E-2,0
STARLINK-3181,2022-010F,2026-07-06T04:58:17.939712,15.08813915,.00014059,53.1597,106.8646,89.6179,270.4973,0,U,51461,999,24471,-.15526125E-3,-.2756E-4,0
STARLINK-3166,2022-010G,2026-07-06T00:13:49.401120,15.31703979,.00012671,53.1604,105.0035,89.0223,271.0923,0,U,51462,999,24472,.26637132E-3,.791E-4,0
STARLINK-3419,2022-010H,2026-07-06T14:00:03.000384,15.31679977,.00011363,53.1585,102.6613,92.8433,167.0022,0,U,51463,999,575,.12618992E-2,.38973E-3,0
STARLINK-3189,2022-010J,2026-07-06T01:31:37.580160,15.08833742,.00024652,53.1608,107.5115,96.9326,263.1946,0,U,51464,999,24519,-.13393534E-3,-.2419E-4,0
STARLINK-3401,2022-010K,2026-07-06T01:26:19.849344,15.08817987,.0001398,53.1604,107.5290,95.0834,265.0317,0,U,51465,999,24519,-.14572E-3,-.2605E-4,0
STARLINK-3178,2022-010M,2026-07-06T04:10:35.458464,15.08832034,.00014667,53.1596,107.0147,81.1742,278.9416,0,U,51467,999,24440,-.7917097E-5,-.414E-5,0
STARLINK-3174,2022-010N,2026-07-06T01:10:25.576896,15.08814824,.0001353,53.1609,107.5389,102.2078,257.9065,0,U,51468,999,24438,-.27024E-3,-.4583E-4,0
STARLINK-3182,2022-010P,2026-07-06T01:36:55.329984,15.08825163,.000152,53.1607,107.4948,92.5281,267.5885,0,U,51469,999,24469,-.55262E-4,-.1167E-4,0
STARLINK-3415,2022-010S,2026-07-06T01:01:11.199072,15.08826244,.0001322,53.1600,107.5394,113.1997,246.9133,0,U,51472,999,24469,-.41241E-4,-.944E-5,0
STARLINK-3528,2022-016A,2026-07-06T07:32:01.480128,15.08829038,.00011849,53.1589,156.3663,57.3001,302.8104,0,U,51714,999,24133,-.1263085E-3,-.2297E-4,0
STARLINK-3533,2022-016B,2026-07-06T08:01:02.739936,15.30066753,.00016905,53.1588,154.4999,107.8428,252.2757,0,U,51715,999,24249,.5961466E-2,.179787E-2,0
STARLINK-3543,2022-016C,2026-07-06T04:19:51.649824,15.08825062,.00011454,53.1593,156.9844,64.3006,295.8103,0,U,51716,999,24131,.38610041E-4,.326E-5,0
STARLINK-3445,2022-016D,2026-07-06T07:52:11.152704,15.29348451,.00011182,53.1604,154.4221,77.7399,282.3727,0,U,51717,999,24136,-.36984864E-4,-.1423E-4,0
STARLINK-3546,2022-016E,2026-07-06T04:20:09.705696,15.20716730,.00022915,53.2148,146.8935,4.8028,355.2991,0,U,51718,999,24258,.7370884E-3,.16125E-3,0
STARLINK-3540,2022-016F,2026-07-06T07:25:21.291744,15.08826545,.00013597,53.1597,156.4823,81.7581,278.3565,0,U,51719,999,24133,-.26070278E-4,-.703E-5,0
STARLINK-3526,2022-016G,2026-07-06T10:49:24.512160,15.31525295,.00010976,53.1609,153.9651,85.4893,274.6233,0,U,51720,999,24137,.4158509E-2,.130238E-2,0
STARLINK-3524,2022-016H,2026-07-06T07:26:56.234112,15.29342856,.00015374,53.1628,154.4323,99.0850,261.0325,0,U,51721,999,24136,-.48227186E-4,-.1747E-4,0
STARLINK-3535,2022-016J,2026-07-06T08:23:36.907008,15.08829780,.0001943,53.1601,156.2242,31.4788,328.6319,0,U,51722,999,24133,.859706E-5,-.151E-5,0
STARLINK-3529,2022-016L,2026-07-06T08:13:02.745696,15.08826461,.0001182,53.1594,156.2555,89.0530,271.0597,0,U,51724,999,24133,-.5939028E-5,-.382E-5,0
STARLINK-3522,2022-016M,2026-07-06T08:28:55.384320,15.08845224,.00011676,53.1603,156.2069,79.0300,281.0822,0,U,51725,999,24133,-.25254347E-3,-.4306E-4,0
STARLINK-3527,2022-016N,2026-07-06T06:12:16.502976,15.12322629,.00023233,53.2146,145.5262,53.8257,306.2952,0,U,51726,999,24148,.85043861E-3,.14635E-3,0
STARLINK-3532,2022-016P,2026-07-06T03:32:09.852000,15.08827905,.000132,53.1600,157.1328,84.5788,275.5354,0,U,51727,999,24130,-.12402E-4,-.485E-5,0
STARLINK-3523,2022-016R,2026-07-06T14:00:03.000384,15.26127697,.00010381,53.1599,144.3630,70.0414,334.4840,0,U,51729,999,574,.17984607E-2,.46989E-3,0
STARLINK-3514,2022-016T,2026-07-06T14:00:03.000384,15.25936577,.00017818,53.1609,144.3424,74.6571,21.0962,0,U,51731,999,575,.73271057E-3,.18757E-3,0
STARLINK-3518,2022-016U,2026-07-06T14:00:03.000384,15.25829374,.00022437,53.1615,144.4450,80.4883,42.4546,0,U,51732,999,580,.19610635E-2,.50835E-3,0
STARLINK-3525,2022-016V,2026-07-06T14:00:03.000384,15.28172085,.00020484,53.1610,144.2914,91.1953,70.4436,0,U,51733,999,575,.39647074E-1,.1200973E-1,0
STARLINK-3450,2022-016W,2026-07-06T14:00:03.000384,15.27623547,.0001324,53.1603,144.2920,129.9876,131.6551,0,U,51734,999,564,.17492745E-2,.47829E-3,0
STARLINK-3517,2022-016X,2026-07-06T14:00:03.000384,15.27810742,.00009778,53.1609,144.3374,65.6024,133.0230,0,U,51735,999,580,.47835734E-3,.12838E-3,0
