STARLINK-3357           
1 51150U 22005AY  26187.58336806  .00038966  00000+0  17979-2 0  9990
2 51150  53.1604 124.3289 0001001  76.7399 277.2349 15.19885754  5759
STARLINK-3364           
1 51152U 22005BA  26187.58336806  .00787089  00000+0  27627-1 0  9999
2 51152  53.1627 134.0679 0001231  92.1430 181.3908 15.26406315  5790
STARLINK-3181           
1 51461U 22010F   26187.20715208 -.00002756  00000+0 -15526-3 0  9994
2 51461  53.1597 106.8646 0001405  89.6179 270.4973 15.08813915244711
STARLINK-3166           
1 51462U 22010G   26187.00959955  .00007910  00000+0  26637-3 0  9992
2 51462  53.1604 105.0035 0001267  89.0223 271.0923 15.31703979244721
STARLINK-3419           
1 51463U 22010H   26187.58336806  .00038973  00000+0  12619-2 0  9997
2 51463  53.1585 102.6613 0001136  92.8433 167.0022 15.31679977  5757
STARLINK-3189           
1 51464U 22010J   26187.06362940 -.00002419  00000+0 -13394-3 0  9999
2 51464  53.1608 107.5115 0002465  96.9326 263.1946 15.08833742245190
STARLINK-3401           
1 51465U 22010K   26187.05995196 -.00002605  00000+0 -14572-3 0  9990
2 51465  53.1604 107.5290 0001398  95.0834 265.0317 15.08817987245195
STARLINK-3178           
1 51467U 22010M   26187.17402151 -.00000414  00000+0 -79171-5 0  9993
2 51467  53.1596 107.0147 0001466  81.1742 278.9416 15.08832034244409
STARLINK-3174           
1 51468U 22010N   26187.04890714 -.00004583  00000+0 -27024-3 0  9995
2 51468  53.1609 107.5389 0001353 102.2078 257.9065 15.08814824244381
STARLINK-3182           
1 51469U 22010P   26187.06730706 -.00001167  00000+0 -55262-4 0  9993
2 51469  53.1607 107.4948 0001520  92.5281 267.5885 15.08825163244692
STARLINK-3415           
1 51472U 22010S   26187.04249073 -.00000944  00000+0 -41241-4 0  9991
2 51472  53.1600 107.5394 0001322 113.1997 246.9133 15.08826244244697
STARLINK-3528           
1 51714U 22016A   26187.31390602 -.00002297  00000+0 -12631-3 0  9994
2 51714  53.1589 156.3663 0001184  57.3001 302.8104 15.08829038241336
STARLINK-3533           
1 51715U 22016B   26187.33405949  .00179787  00000+0  59615-2 0  9997
2 51715  53.1588 154.4999 0001690 107.8428 252.2757 15.30066753242495
STARLINK-3543           
1 51716U 22016C   26187.18045891  .00000326  00000+0  38610-4 0  9993
2 51716  53.1593 156.9844 0001145  64.3006 295.8103 15.08825062241311
STARLINK-3445           
1 51717U 22016D   26187.32790686 -.00001423  00000+0 -36985-4 0  9993
2 51717  53.1604 154.4221 0001118  77.7399 282.3727 15.29348451241363
STARLINK-3546           
1 51718U 22016E   26187.18066789  .00016125  00000+0  73709-3 0  9995
2 51718  53.2148 146.8935 0002291   4.8028 355.2991 15.20716730242586
STARLINK-3540           
1 51719U 22016F   26187.30927421 -.00000703  00000+0 -26070-4 0  9996
2 51719  53.1597 156.4823 0001359  81.7581 278.3565 15.08826545241335
STARLINK-3526           
1 51720U 22016G   26187.45097815  .00130238  00000+0  41585-2 0  9990
2 51720  53.1609 153.9651 0001097  85.4893 274.6233 15.31525295241377
STARLINK-3524           
1 51721U 22016H   26187.31037308 -.00001747  00000+0 -48227-4 0  9993
2 51721  53.1628 154.4323 0001537  99.0850 261.0325 15.29342856241362
STARLINK-3535           
1 51722U 22016J   26187.34973272 -.00000151  00000+0  85971-5 0  9991
2 51722  53.1601 156.2242 0001943  31.4788 328.6319 15.08829780241338
STARLINK-3529           
1 51724U 22016L   26187.34239289 -.00000382  00000+0 -59390-5 0  9999
2 51724  53.1594 156.2555 0001182  89.0530 271.0597 15.08826461241339
STARLINK-3522           
1 51725U 22016M   26187.35341880 -.00004306  00000+0 -25254-3 0  9992
2 51725  53.1603 156.2069 0001167  79.0300 281.0822 15.08845224241338
STARLINK-3527           
1 51726U 22016N   26187.25852434  .00014635  00000+0  85044-3 0  9991
2 51726  53.2146 145.5262 0002323  53.8257 306.2952 15.12322629241488
STARLINK-3532           
1 51727U 22016P   26187.14733625 -.00000485  00000+0 -12402-4 0  9999
2 51727  53.1600 157.1328 0001320  84.5788 275.5354 15.08827905241308
STARLINK-3523           
1 51729U 22016R   26187.58336806  .00046989  00000+0  17985-2 0  9995
2 51729  53.1599 144.3630 0001038  70.0414 334.4840 15.26127697  5745
STARLINK-3514           
1 51731U 22016T   26187.58336806  .00018757  00000+0  73271-3 0  9991
2 51731  53.1609 144.3424 0001781  74.6571  21.0962 15.25936577  5759
STARLINK-3518           
1 51732U 22016U   26187.58336806  .00050835  00000+0  19611-2 0  9992
2 51732  53.1615 144.4450 0002243  80.4883  42.4546 15.25829374  5809
STARLINK-3525           
1 51733U 22016V   26187.58336806  .01200973  00000+0  39647-1 0  9994
2 51733  53.1610 144.2914 0002048  91.1953  70.4436 15.28172085  5754
STARLINK-3450           
1 51734U 22016W   26187.58336806  .00047829  00000+0  17493-2 0  9999
2 51734  53.1603 144.2920 0001324 129.9876 131.6551 15.27623547  5643
STARLINK-3517           
1 51735U 22016X   26187.58336806  .00012838  00000+0  47836-3 0  9997
2 51735  53.1609 144.3374 0000977  65.6024 133.0230 15.27810742  5801
